ONEWEB-0228             
1 48780U 21045P   24055.52497568 -.00000086  00000+0 -26170-3 0  9995
2 48780  87.8939  67.0935 0001984  87.7098 272.4260 13.15548749133405
